NORAD_CAT_ID,OBJECT_NAME,OBJECT_TYPE,EPOCH,MEAN_MOTION,ECCENTRICITY,INCLINATION,RA_OF_ASC_NODE,ARG_OF_PERICENTER,MEAN_ANOMALY,BSTAR,MEAN_MOTION_DOT,MEAN_MOTION_DDOT,TLE_LINE0,TLE_LINE1,TLE_LINE2,SEMIMAJOR_AXIS,PERIOD,APOGEE,PERIGEE,DECAYED
53750.0,STARLINK-4612,PAYLOAD,2023-08-24 18:10:13,15.08842903,0.0001317,53.2175,110.0162,88.963,271.1513,3.6903e-05,3e-06,0.0,0 STARLINK-4612,1 53750U 22107BC  23236.75709674  .00000300  00000-0  36903-4 0  9991,2 53750  53.2175 110.0162 0001317  88.9630 271.1513 15.08842903 53729,6917.872,95.437,540.648,538.825,0.0
53750.0,STARLINK-4612,PAYLOAD,2023-08-25 00:31:45,15.08848942,0.0001554,53.2183,108.827,95.1373,264.9797,8.6018e-05,1.082e-05,0.0,0 STARLINK-4612,1 53750U 22107BC  23237.02205111  .00001082  00000-0  86018-4 0  9999,2 53750  53.2183 108.8270 0001554  95.1373 264.9797 15.08848942 53767,6917.853,95.437,540.793,538.643,0.0
53750.0,STARLINK-4612,PAYLOAD,2023-08-25 19:36:23,15.08837799,0.0001834,53.2187,105.2594,114.4366,245.6818,0.00013708,1.894e-05,0.0,0 STARLINK-4612,1 53750U 22107BC  23237.81693550  .00001894  00000-0  13708-3 0  9990,2 53750  53.2187 105.2594 0001834 114.4366 245.6818 15.08837799 53880,6917.887,95.438,541.021,538.483,0.0
53750.0,STARLINK-4612,PAYLOAD,2023-08-26 00:22:32,15.08842893,0.0001418,53.2178,104.3671,88.887,271.2285,0.00010666,1.41e-05,0.0,0 STARLINK-4612,1 53750U 22107BC  23238.01565278  .00001410  00000-0  10666-3 0  9992,2 53750  53.2178 104.3671 0001418  88.8870 271.2285 15.08842893 54704,6917.872,95.437,540.718,538.756,0.0
53750.0,STARLINK-4612,PAYLOAD,2023-08-26 21:02:35,15.08743625,0.0002179,53.2179,100.5007,89.7709,270.3533,0.001482,0.00023315,0.0,0 STARLINK-4612,1 53750U 22107BC  23238.87680222  .00023315  00000-0  14820-2 0  9996,2 53750  53.2179 100.5007 0002179  89.7709 270.3533 15.08743625 54835,6918.175,95.444,541.547,538.533,0.0
53750.0,STARLINK-4612,PAYLOAD,2023-08-26 22:37:58,15.08748692,0.0002168,53.2179,100.2035,88.6647,271.4593,0.0014739,0.00023189,0.0,0 STARLINK-4612,1 53750U 22107BC  23238.94304316  .00023189  00000-0  14739-2 0  9999,2 53750  53.2179 100.2035 0002168  88.6647 271.4593 15.08748692 54051,6918.159,95.443,541.524,538.525,0.0
53750.0,STARLINK-4612,PAYLOAD,2023-08-27 20:53:20,15.0883933,0.0001546,53.2181,96.04,76.7092,283.4073,2.2264e-05,6.6e-07,0.0,0 STARLINK-4612,1 53750U 22107BC  23239.87037969  .00000066  00000-0  22264-4 0  9992,2 53750  53.2181  96.0400 0001546  76.7092 283.4073 15.08839330 54981,6917.882,95.438,540.817,538.678,0.0
53750.0,STARLINK-4612,PAYLOAD,2023-08-28 01:39:29,15.08845108,0.0001302,53.2171,95.1483,89.0137,271.1004,6.0086e-05,6.69e-06,0.0,0 STARLINK-4612,1 53750U 22107BC  23240.06909364  .00000669  00000-0  60086-4 0  9995,2 53750  53.2171  95.1483 0001302  89.0137 271.1004 15.08845108 54223,6917.865,95.437,540.63,538.829,0.0
53750.0,STARLINK-4612,PAYLOAD,2023-08-28 14:22:35,15.08836201,0.0001413,53.2183,92.7674,81.9815,278.1338,2.461e-05,1.04e-06,0.0,0 STARLINK-4612,1 53750U 22107BC  23240.59902164  .00000104  00000-0  24610-4 0  9991,2 53750  53.2183  92.7674 0001413  81.9815 278.1338 15.08836201 54308,6917.892,95.438,540.734,538.78,0.0
53750.0,STARLINK-4612,PAYLOAD,2023-08-28 20:44:07,15.08841078,0.0001373,53.2172,91.5806,79.3267,280.788,6.3415e-05,7.21e-06,0.0,0 STARLINK-4612,1 53750U 22107BC  23240.86397752  .00000721  00000-0  63415-4 0  9993,2 53750  53.2172  91.5806 0001373  79.3267 280.7880 15.08841078 55138,6917.877,95.437,540.692,538.792,0.0
53750.0,STARLINK-4612,PAYLOAD,2023-08-28 23:54:53,15.08843989,0.0001485,53.2181,90.9844,80.6586,279.4574,8.3677e-05,1.044e-05,0.0,0 STARLINK-4612,1 53750U 22107BC  23240.99645525  .00001044  00000-0  83677-4 0  9992,2 53750  53.2181  90.9844 0001485  80.6586 279.4574 15.08843989 54368,6917.868,95.437,540.76,538.706,0.0
53750.0,STARLINK-4612,PAYLOAD,2023-08-29 17:24:08,15.0883951,0.0001273,53.2171,87.7141,87.0997,273.0141,3.6789e-05,2.98e-06,0.0,0 STARLINK-4612,1 53750U 22107BC  23241.72510003  .00000298  00000-0  36789-4 0  9998,2 53750  53.2171  87.7141 0001273  87.0997 273.0141 15.08839510 54470,6917.882,95.438,540.628,538.866,0.0
53750.0,STARLINK-4612,PAYLOAD,2023-08-29 20:34:54,15.08841194,0.0001254,53.2174,87.1192,100.7722,259.3411,5.6147e-05,6.06e-06,0.0,0 STARLINK-4612,1 53750U 22107BC  23241.85757789  .00000606  00000-0  56147-4 0  9999,2 53750  53.2174  87.1192 0001254 100.7722 259.3411 15.08841194 55289,6917.877,95.437,540.609,538.874,0.0
53750.0,STARLINK-4612,PAYLOAD,2023-08-29 23:45:40,15.08845456,0.0001221,53.2178,86.5243,92.089,268.0242,8.5873e-05,1.079e-05,0.0,0 STARLINK-4612,1 53750U 22107BC  23241.99005465  .00001079  00000-0  85873-4 0  9994,2 53750  53.2178  86.5243 0001221  92.0890 268.0242 15.08845456 54515,6917.864,95.437,540.573,538.884,0.0
53750.0,STARLINK-4612,PAYLOAD,2023-08-30 20:25:42,15.08837712,0.000131,53.2181,82.6591,91.58,268.5342,3.7244e-05,3.05e-06,0.0,0 STARLINK-4612,1 53750U 22107BC  23242.85118157  .00000305  00000-0  37244-4 0  9993,2 53750  53.2181  82.6591 0001310  91.5800 268.5342 15.08837712 55430,6917.887,95.438,540.659,538.846,0.0
53750.0,STARLINK-4612,PAYLOAD,2023-08-31 21:51:51,15.08869203,0.0001092,53.2184,77.9029,99.5581,260.5534,-0.0004136,-6.869e-05,0.0,0 STARLINK-4612,1 53750U 22107BC  23243.91101445 -.00006869  00000-0 -41360-3 0  9999,2 53750  53.2184  77.9029 0001092  99.5581 260.5534 15.08869203 55599,6917.791,95.436,540.412,538.901,0.0
53750.0,STARLINK-4612,PAYLOAD,2023-08-31 23:27:15,15.08837996,0.0001307,53.2186,77.6052,97.9403,262.1737,5.0039e-05,5.09e-06,0.0,0 STARLINK-4612,1 53750U 22107BC  23243.97726250  .00000509  00000-0  50039-4 0  9999,2 53750  53.2186  77.6052 0001307  97.9403 262.1737 15.08837996 54819,6917.887,95.438,540.656,538.847,0.0
53750.0,STARLINK-4612,PAYLOAD,2023-09-01 05:48:48,15.08838456,0.0001201,53.2173,76.4163,106.6928,253.4196,-3.2591e-06,-3.4e-06,0.0,0 STARLINK-4612,1 53750U 22107BC  23244.24222360 -.00000340  00000-0 -32591-5 0  9992,2 53750  53.2173  76.4163 0001201 106.6928 253.4196 15.08838456 55644,6917.885,95.438,540.581,538.919,0.0
53750.0,STARLINK-4612,PAYLOAD,2023-09-02 05:39:35,15.08829915,0.0002289,53.2104,71.9542,99.9635,260.1615,0.00014966,2.094e-05,0.0,0 STARLINK-4612,1 53750U 22107BC  23245.23582982  .00002094  00000-0  14966-3 0  9991,2 53750  53.2104  71.9542 0002289  99.9635 260.1615 15.08829915 55006,6917.911,95.438,541.36,538.193,0.0
53750.0,STARLINK-4612,PAYLOAD,2023-09-02 18:22:40,15.088426,0.0001363,53.2184,69.5718,87.0414,273.0734,9.5169e-05,1.227e-05,0.0,0 STARLINK-4612,1 53750U 22107BC  23245.76574259  .00001227  00000-0  95169-4 0  9999,2 53750  53.2184  69.5718 0001363  87.0414 273.0734 15.08842600 55873,6917.872,95.437,540.68,538.795,0.0
53750.0,STARLINK-4612,PAYLOAD,2023-09-03 00:44:12,15.08844164,0.0001378,53.2194,68.382,87.9232,272.1918,0.00020208,2.93e-05,0.0,0 STARLINK-4612,1 53750U 22107BC  23246.03069797  .00002930  00000-0  20208-3 0  9999,2 53750  53.2194  68.3820 0001378  87.9232 272.1918 15.08844164 55127,6917.868,95.437,540.686,538.779,0.0
53750.0,STARLINK-4612,PAYLOAD,2023-09-03 05:30:22,15.08840768,0.0001413,53.2189,67.4897,87.6415,272.4738,7.0925e-05,8.41e-06,0.0,0 STARLINK-4612,1 53750U 22107BC  23246.22942446  .00000841  00000-0  70925-4 0  9992,2 53750  53.2189  67.4897 0001413  87.6415 272.4738 15.08840768 55157,6917.878,95.438,540.721,538.766,0.0
53750.0,STARLINK-4612,PAYLOAD,2023-09-04 11:42:42,15.08834938,0.0001141,53.2158,61.8443,87.4615,272.6508,6.7223e-05,7.82e-06,0.0,0 STARLINK-4612,1 53750U 22107BC  23247.48798671  .00000782  00000-0  67223-4 0  9991,2 53750  53.2158  61.8443 0001141  87.4615 272.6508 15.08834938 56134,6917.896,95.438,540.55,538.972,0.0
53750.0,STARLINK-4612,PAYLOAD,2023-09-04 18:04:14,15.08835211,0.0001282,53.2181,60.6521,97.857,262.2568,2.94e-05,1.8e-06,0.0,0 STARLINK-4612,1 53750U 22107BC  23247.75294883  .00000180  00000-0  29400-4 0  9994,2 53750  53.2181  60.6521 0001282  97.8570 262.2568 15.08835211 55387,6917.895,95.438,540.647,538.873,0.0
53750.0,STARLINK-4612,PAYLOAD,2023-09-05 05:11:56,15.08842082,0.0001215,53.2178,58.5715,95.527,264.5861,-2.1677e-05,-6.33e-06,0.0,0 STARLINK-4612,1 53750U 22107BC  23248.21662569 -.00000633  00000-0 -21677-4 0  9999,2 53750  53.2178  58.5715 0001215  95.5270 264.5861 15.08842082 56243,6917.874,95.437,540.58,538.899,0.0
53750.0,STARLINK-4612,PAYLOAD,2023-09-05 19:30:24,15.08843826,0.0001328,53.2174,55.8964,88.3012,271.8132,4.3838e-05,4.1e-06,0.0,0 STARLINK-4612,1 53750U 22107BC  23248.81278430  .00000410  00000-0  43838-4 0  9999,2 53750  53.2174  55.8964 0001328  88.3012 271.8132 15.08843826 55545,6917.869,95.437,540.652,538.815,0.0
53750.0,STARLINK-4612,PAYLOAD,2023-09-06 14:35:03,15.08822488,0.0001254,53.2177,52.3274,87.8758,272.2378,7.3919e-06,-1.7e-06,0.0,0 STARLINK-4612,1 53750U 22107BC  23249.60768379 -.00000170  00000-0  73919-5 0  9991,2 53750  53.2177  52.3274 0001254  87.8758 272.2378 15.08822488 55664,6917.934,95.439,540.666,538.931,0.0
53750.0,STARLINK-4612,PAYLOAD,2023-09-06 20:56:36,15.0882293,0.0001359,53.2181,51.1367,93.7689,266.3458,-4.5721e-05,-1.015e-05,0.0,0 STARLINK-4612,1 53750U 22107BC  23249.87264769 -.00001015  00000-0 -45721-4 0  9993,2 53750  53.2181  51.1367 0001359  93.7689 266.3458 15.08822930 56491,6917.933,95.439,540.738,538.857,0.0
53750.0,STARLINK-4612,PAYLOAD,2023-09-07 11:15:05,15.08825986,7.27e-05,53.2193,48.4628,87.6181,272.4895,-1.7688e-05,-5.69e-06,0.0,0 STARLINK-4612,1 53750U 22107BC  23250.46880877 -.00000569  00000-0 -17688-4 0  9998,2 53750  53.2193  48.4628 0000727  87.6181 272.4895 15.08825986 56587,6917.923,95.438,540.291,539.285,0.0
53750.0,STARLINK-4612,PAYLOAD,2023-09-07 20:47:23,15.08839661,0.0001593,53.218,46.6788,67.9553,292.1608,5.6261e-05,6.07e-06,0.0,0 STARLINK-4612,1 53750U 22107BC  23250.86624275  .00000607  00000-0  56261-4 0  9991,2 53750  53.2180  46.6788 0001593  67.9553 292.1608 15.08839661 56649,6917.881,95.438,540.848,538.644,0.0
